COSMOS 2058             
1 20465U 90010A   26166.87807503  .00003612  00000+0  20856-3 0  9991
2 20465  82.4676 310.6454 0009348   5.5604 354.5729 15.12005835957072
SL-14 R/B               
1 20466U 90010B   26166.48179023  .00000319  00000+0  35719-4 0  9994
2 20466  82.5016 175.5465 0019233 342.0593  17.9940 14.83645262942982
SL-14 R/B               
1 20511U 90018B   26166.93126328  .00000324  00000+0  37572-4 0  9998
2 20511  82.5210 131.2815 0017368 125.5379 234.7458 14.82215412937133
HST                     
1 20580U 90037B   26166.96968565  .00005371  00000+0  16812-3 0  9995
2 20580  28.4719  88.8951 0001862 130.1338 229.9421 15.30734903788381
SL-16 R/B               
1 20625U 90046B   26166.88780198  .00000162  00000+0  10792-3 0  9994
2 20625  70.9998  91.6771 0013421 163.7240 196.4317 14.15026182862281
COSMOS 2084             
1 20663U 90055A   26166.86638967  .00001841  00000+0  13905-3 0  9994
2 20663  62.7909   0.5990 0005589 277.3011  82.7454 15.06111493951100
SL-6 R/B(2)             
1 20666U 90055D   26166.65308399  .00001353  00000+0  11055-3 0  9999
2 20666  62.7824 280.5968 0040408   4.9178 355.2310 15.03998719952922
SL-8 R/B                
1 20775U 90078B   26166.98813414  .00019314  00000+0  54404-3 0  9991
2 20775  82.9005 162.7280 0351250  42.5035 320.2811 14.92270170823944
SL-8 R/B                
1 21088U 91006B   26166.90229981  .00000049  00000+0  33285-4 0  9993
2 21088  82.9424  96.9895 0023637 117.9838 308.9465 13.77505790777598
OKEAN-3                 
1 21397U 91039A   26166.74269522  .00002364  00000+0  16300-3 0  9999
2 21397  82.5158 241.7817 0014213   3.5006 356.6317 15.05317565879786
COSMOS 2151             
1 21422U 91042A   26166.92601301  .00001550  00000+0  12087-3 0  9991
2 21422  82.4960 348.8982 0013832  87.7225 272.5583 15.00435328877928
SL-14 R/B               
1 21423U 91042B   26166.93752590  .00000307  00000+0  35859-4 0  9992
2 21423  82.4927 128.0674 0015447 279.4180  80.5287 14.81901825867624
ERS-1                   
1 21574U 91050A   26166.98318387  .00000288  00000+0  10661-3 0  9996
2 21574  98.7797 187.6517 0030718 270.6587  89.1080 14.39517388829876
ARIANE 40 R/B           
1 21610U 91050F   26166.87019893  .00000239  00000+0  83944-4 0  9996
2 21610  98.1876 215.3384 0004210 124.3028 235.8562 14.42956368833153
INTERCOSMOS 25          
1 21819U 91086A   26165.47066083  .00000594  00000+0  11849-3 0  9992
2 21819  82.6052 251.4538 1484112 268.2589  74.8557 12.12192313508414
SL-8 R/B                
1 21876U 92008B   26166.83956995  .00000138  00000+0  12595-3 0  9994
2 21876  82.9263 194.7896 0033750 218.5509 314.5923 13.75976573722919
SL-8 R/B                
1 21938U 92020B   26166.89158749  .00000066  00000+0  52879-4 0  9994
2 21938  82.9306  80.8197 0029809  26.1195  41.6993 13.75548705714636
USA 81                  
1 21949U 92023A   26166.80786867  .00000152  00000+0  48783-4 0  9993
2 21949  85.0076  74.8035 0002759  85.7457 274.4051 14.32397869108834
COSMOS 2219             
1 22219U 92076A   26166.77586956  .00000238  00000+0  14962-3 0  9991
2 22219  71.0578 173.0223 0016533  46.4663 313.7830 14.14098115732248
SL-16 R/B               
1 22220U 92076B   26166.90931487  .00000143  00000+0  95242-4 0  9997
2 22220  71.0005 341.4731 0014633 300.3396 166.6883 14.16871728735746
COSMOS 2221             
1 22236U 92080A   26166.80175345  .00001241  00000+0  10679-3 0  9991
2 22236  82.5031 185.0920 0013161 217.1571 142.8741 14.96530078795468
SL-16 R/B               
1 22285U 92093B   26166.68771203 -.00000307  00000+0 -13303-3 0  9991
2 22285  71.0198 158.5394 0004048 191.0622 169.0413 14.15461932727027
COSMOS 2228             
1 22286U 92094A   26166.95181592  .00001834  00000+0  15444-3 0  9991
2 22286  82.5173 143.2261 0017002 336.6951  23.3499 14.97582793790764
SL-16 R/B               
1 22566U 93016B   26166.87967133  .00000305  00000+0  18110-3 0  9996
2 22566  71.0085   8.9539 0010284 185.3524 174.7491 14.15313440716060
COSMOS 2242             
1 22626U 93024A   26166.97754262  .00001458  00000+0  12454-3 0  9995
2 22626  82.5180 172.7002 0015465 340.5947  19.4685 14.96900242795096
SL-16 R/B               
1 22803U 93059B   26166.72540561  .00000028  00000+0  37464-4 0  9999
2 22803  70.9887 164.3863 0015166  56.4083 303.8486 14.17248166693428
ARIANE 40 R/B           
1 22830U 93061H   26166.80883349  .00000161  00000+0  74611-4 0  9998
2 22830  98.4819 233.6944 0010545   0.4144 359.7047 14.32907412708154
COSMOS 2278             
1 23087U 94023A   26166.90318371  .00000133  00000+0  94204-4 0  9990
2 23087  71.0549 329.6113 0010610 244.7647 115.2376 14.14397763658699
SL-16 R/B               
1 23088U 94023B   26166.90552394  .00000304  00000+0  18152-3 0  9993
2 23088  70.9994 224.6231 0002841 187.6244 172.4836 14.15024535659986
SL-16 R/B               
1 23343U 94074B   26166.99816023  .00000342  00000+0  52298-4 0  9996
2 23343  97.6991 193.7687 0005100 258.6256 165.6096 14.79501474701787
