OBJECT_NAME,OBJECT_ID,EPOCH,MEAN_MOTION,ECCENTRICITY,INCLINATION,RA_OF_ASC_NODE,ARG_OF_PERICENTER,MEAN_ANOMALY,EPHEMERIS_TYPE,CLASSIFICATION_TYPE,NORAD_CAT_ID,ELEMENT_SET_NO,REV_AT_EPOCH,BSTAR,MEAN_MOTION_DOT,MEAN_MOTION_DDOT
COSMOS 2058,1990-010A,2026-06-15T21:04:25.682592,15.12005835,.00093487,82.4676,310.6454,5.5604,354.5729,0,U,20465,999,95707,.2085551E-3,.3612E-4,0
SL-14 R/B,1990-010B,2026-06-15T11:33:46.675872,14.83645262,.0019233,82.5016,175.5465,342.0593,17.9940,0,U,20466,999,94298,.35719196E-4,.319E-5,0
SL-14 R/B,1990-018B,2026-06-15T22:21:01.147392,14.82215412,.00173681,82.5210,131.2815,125.5379,234.7458,0,U,20511,999,93713,.37571556E-4,.324E-5,0
HST,1990-037B,2026-06-15T23:16:20.840160,15.30734903,.00018622,28.4719,88.8951,130.1338,229.9421,0,U,20580,999,78838,.1681182E-3,.5371E-4,0
SL-16 R/B,1990-046B,2026-06-15T21:18:26.091072,14.15026182,.00134219,70.9998,91.6771,163.7240,196.4317,0,U,20625,999,86228,.1079206E-3,.162E-5,0
COSMOS 2084,1990-055A,2026-06-15T20:47:36.067488,15.06111493,.00055895,62.7909,0.5990,277.3011,82.7454,0,U,20663,999,95110,.13904743E-3,.1841E-4,0
SL-6 R/B(2),1990-055D,2026-06-15T15:40:26.456736,15.03998719,.00404082,62.7824,280.5968,4.9178,355.2310,0,U,20666,999,95292,.11055438E-3,.1353E-4,0
SL-8 R/B,1990-078B,2026-06-15T23:42:54.789696,14.92270170,.03512508,82.9005,162.7280,42.5035,320.2811,0,U,20775,999,82394,.54403853E-3,.19314E-3,0
SL-8 R/B,1991-006B,2026-06-15T21:39:18.703584,13.77505790,.0023637,82.9424,96.9895,117.9838,308.9465,0,U,21088,999,77759,.33284914E-4,.49E-6,0
OKEAN-3,1991-039A,2026-06-15T17:49:28.867008,15.05317565,.00142134,82.5158,241.7817,3.5006,356.6317,0,U,21397,999,87978,.16299818E-3,.2364E-4,0
COSMOS 2151,1991-042A,2026-06-15T22:13:27.524064,15.00435328,.00138324,82.4960,348.8982,87.7225,272.5583,0,U,21422,999,87792,.12087465E-3,.155E-4,0
SL-14 R/B,1991-042B,2026-06-15T22:30:02.237760,14.81901825,.00154474,82.4927,128.0674,279.4180,80.5287,0,U,21423,999,86762,.35858729E-4,.307E-5,0
ERS-1,1991-050A,2026-06-15T23:35:47.086368,14.39517388,.00307186,98.7797,187.6517,270.6587,89.1080,0,U,21574,999,82987,.10661388E-3,.288E-5,0
ARIANE 40 R/B,1991-050F,2026-06-15T20:53:05.187552,14.42956368,.00042108,98.1876,215.3384,124.3028,235.8562,0,U,21610,999,83315,.83943899E-4,.239E-5,0
INTERCOSMOS 25,1991-086A,2026-06-14T11:17:45.095712,12.12192313,.14841129,82.6052,251.4538,268.2589,74.8557,0,U,21819,999,50841,.11849233E-3,.594E-5,0
SL-8 R/B,1992-008B,2026-06-15T20:08:58.843680,13.75976573,.00337507,82.9263,194.7896,218.5509,314.5923,0,U,21876,999,72291,.12594605E-3,.138E-5,0
SL-8 R/B,1992-020B,2026-06-15T21:23:53.159136,13.75548705,.0029809,82.9306,80.8197,26.1195,41.6993,0,U,21938,999,71463,.52878838E-4,.66E-6,0
USA 81,1992-023A,2026-06-15T19:23:19.853088,14.32397869,.0002759,85.0076,74.8035,85.7457,274.4051,0,U,21949,999,10883,.48782765E-4,.152E-5,0
COSMOS 2219,1992-076A,2026-06-15T18:37:15.129984,14.14098115,.00165331,71.0578,173.0223,46.4663,313.7830,0,U,22219,999,73224,.14961623E-3,.238E-5,0
SL-16 R/B,1992-076B,2026-06-15T21:49:24.804768,14.16871728,.00146338,71.0005,341.4731,300.3396,166.6883,0,U,22220,999,73574,.95241524E-4,.143E-5,0
COSMOS 2221,1992-080A,2026-06-15T19:14:31.498080,14.96530078,.00131611,82.5031,185.0920,217.1571,142.8741,0,U,22236,999,79546,.10679293E-3,.1241E-4,0
SL-16 R/B,1992-093B,2026-06-15T16:30:18.319392,14.15461932,.00040488,71.0198,158.5394,191.0622,169.0413,0,U,22285,999,72702,-.13302583E-3,-.307E-5,0
COSMOS 2228,1992-094A,2026-06-15T22:50:36.895488,14.97582793,.00170027,82.5173,143.2261,336.6951,23.3499,0,U,22286,999,79076,.15443839E-3,.1834E-4,0
SL-16 R/B,1993-016B,2026-06-15T21:06:43.602912,14.15313440,.0010284,71.0085,8.9539,185.3524,174.7491,0,U,22566,999,71606,.18109633E-3,.305E-5,0
COSMOS 2242,1993-024A,2026-06-15T23:27:39.682368,14.96900242,.00154652,82.5180,172.7002,340.5947,19.4685,0,U,22626,999,79509,.12453981E-3,.1458E-4,0
SL-16 R/B,1993-059B,2026-06-15T17:24:35.044704,14.17248166,.00151667,70.9887,164.3863,56.4083,303.8486,0,U,22803,999,69342,.37464023E-4,.28E-6,0
ARIANE 40 R/B,1993-061H,2026-06-15T19:24:43.213536,14.32907412,.00105455,98.4819,233.6944,0.4144,359.7047,0,U,22830,999,70815,.74611101E-4,.161E-5,0
COSMOS 2278,1994-023A,2026-06-15T21:40:35.072544,14.14397763,.00106103,71.0549,329.6113,244.7647,115.2376,0,U,23087,999,65869,.94203843E-4,.133E-5,0
SL-16 R/B,1994-023B,2026-06-15T21:43:57.268416,14.15024535,.00028412,70.9994,224.6231,187.6244,172.4836,0,U,23088,999,65998,.18151843E-3,.304E-5,0
SL-16 R/B,1994-074B,2026-06-15T23:57:21.043872,14.79501474,.00051004,97.6991,193.7687,258.6256,165.6096,0,U,23343,999,70178,.52297563E-4,.342E-5,0
